COSMOS 1933             
1 18958U 88020A   25355.65685197  .00003522  00000+0  17584-3 0  9995
2 18958  82.5136 328.0671 0006239 104.4674 255.7252 15.17177728 38398
SL-3 R/B                
1 19046U 88032B   25355.82177122  .00004287  00000+0  20724-3 0  9999
2 19046  97.5087 334.4796 0027658 142.0018 218.3174 15.18824140 40282
SL-16 R/B               
1 19120U 88039B   25355.83680238  .00000162  00000+0  99165-4 0  9991
2 19120  71.0132 233.1638 0019563 100.6999 259.6330 14.19598697947336
COSMOS 1953             
1 19210U 88050A   25351.75027580  .00004793  00000+0  17925-3 0  9993
2 19210  82.5093 240.5536 0013540  56.0210 304.2313 15.26995692 25270
SL-8 R/B                
1 19257U 88053B   25355.85823817  .00000216  00000+0  78663-4 0  9992
2 19257  74.0471 255.9144 0018970  96.5557 331.6529 14.38864348965403
COSMOS 1975             
1 19573U 88093A   25355.63012779  .00005445  00000+0  20639-3 0  9998
2 19573  82.5189 195.9277 0013032  84.7337 275.5388 15.26585052  7498
SL-14 R/B               
1 19574U 88093B   25355.74356704  .00000435  00000+0  47370-4 0  9996
2 19574  82.5315 115.2181 0019358 298.0242 176.6352 14.85557998989461
SL-16 R/B               
1 19650U 88102B   25355.85300066  .00000251  00000+0  15101-3 0  9996
2 19650  71.0004 315.2675 0012541 136.2237 223.9883 14.16140534915875
INTERCOSMOS 24          
1 20261U 89080A   25355.72161858  .00000605  00000+0  16908-3 0  9991
2 20261  82.6051 155.1132 1188992 113.6931 259.3374 12.59453795656982
SL-14 R/B               
1 20262U 89080C   25355.70488948  .00000310  00000+0  89341-4 0  9997
2 20262  82.5919 223.2657 1230507   3.1023 357.6855 12.50420315650409
DELTA 1 R/B             
1 20323U 89089B   25355.60706860  .00000270  00000+0  75732-4 0  9993
2 20323  97.0745 210.4389 0069430  10.5696 349.6942 14.50578738884410
ARIANE 40 R/B           
1 20443U 90005H   25355.70399344  .00000228  00000+0  86018-4 0  9994
2 20443  98.3231  53.6283 0011260  81.5935 278.6530 14.39804677881589
